ORBCOMM FM115           
1 41186U 15081H   25357.87595891  .00000581  00000+0  14655-3 0  9996
2 41186  46.9970 217.1222 0001173 231.7381 128.3401 14.62940133535545
ORBCOMM FM108           
1 41187U 15081J   25357.53584116  .00000882  00000+0  22405-3 0  9994
2 41187  47.0057 292.5015 0001797  98.7696 261.3393 14.58578237534435
ORBCOMM FM117           
1 41188U 15081K   25357.50149201  .00000854  00000+0  21812-3 0  9994
2 41188  47.0020 291.3571 0002130 109.6098 250.5017 14.58603493534470
ORBCOMM FM116           
1 41189U 15081L   25357.75585082  .00000864  00000+0  22025-3 0  9991
2 41189  47.0033  19.9266 0002493 303.0088  57.0558 14.58597521533328
